start=new Date('2023-05-19T00:00:00.000Z').valueOf();
sats=[{"ECCENTRICITY":"0.00009590","COUNTRY_CODE":"US","MEAN_MOTION":"15.06416398","FILE":"3911388","EPOCH":"2023-05-18T21:53:34.627776","NORAD_CAT_ID":"47596","MEAN_MOTION_DDOT":"0.0000000000000","CLASSIFICATION_TYPE":"U","BSTAR":"0.00108890000000","REF_FRAME":"TEME","CENTER_NAME":"EARTH","DECAY_DATE":null,"PERIAPSIS":"546.499","RA_OF_ASC_NODE":"326.5107","PERIOD":"95.591","EPHEMERIS_TYPE":"0","SITE":"AFETR","TLE_LINE2":"2 47596  53.0534 326.5107 0000959  84.6487 275.4612 15.06416398125904","TLE_LINE1":"1 47596U 21009BA  23138.91220634  .00015982  00000-0  10889-2 0  9990","GP_ID":"232113185","MEAN_ELEMENT_THEORY":"SGP4","LAUNCH_DATE":"2021-02-04","ARG_OF_PERICENTER":"84.6487","APOAPSIS":"547.827","INCLINATION":"53.0534","ELEMENT_SET_NO":"999","TIME_SYSTEM":"UTC","RCS_SIZE":"LARGE","SEMIMAJOR_AXIS":"6925.298","OBJECT_TYPE":"PAYLOAD","OBJECT_NAME":"STARLINK-2001","MEAN_MOTION_DOT":"0.00015982","OBJECT_ID":"2021-009BA","MEAN_ANOMALY":"275.4612","REV_AT_EPOCH":"12590"},{"BSTAR":"0.00106730000000","REF_FRAME":"TEME","CENTER_NAME":"EARTH","MEAN_MOTION_DDOT":"0.0000000000000","CLASSIFICATION_TYPE":"U","DECAY_DATE":null,"PERIAPSIS":"546.651","ECCENTRICITY":"0.00007150","COUNTRY_CODE":"US","EPOCH":"2023-05-18T21:42:57.220416","NORAD_CAT_ID":"47597","MEAN_MOTION":"15.06422118","FILE":"3911388","LAUNCH_DATE":"2021-02-04","ARG_OF_PERICENTER":"111.2187","APOAPSIS":"547.641","EPHEMERIS_TYPE":"0","SITE":"AFETR","RA_OF_ASC_NODE":"326.5436","PERIOD":"95.591","GP_ID":"232113435","MEAN_ELEMENT_THEORY":"SGP4","TLE_LINE1":"1 47597U 21009BB  23138.90482894  .00015661  00000-0  10673-2 0  9993","TLE_LINE2":"2 47597  53.0537 326.5436 0000715 111.2187 248.8879 15.06422118125903","RCS_SIZE":"LARGE","OBJECT_NAME":"STARLINK-2002","SEMIMAJOR_AXIS":"6925.281","OBJECT_TYPE":"PAYLOAD","TIME_SYSTEM":"UTC","INCLINATION":"53.0537","ELEMENT_SET_NO":"999","REV_AT_EPOCH":"12590","MEAN_ANOMALY":"248.8879","OBJECT_ID":"2021-009BB","MEAN_MOTION_DOT":"0.00015661"},{"EPHEMERIS_TYPE":"0","SITE":"AFETR","RA_OF_ASC_NODE":"296.7983","PERIOD":"95.591","GP_ID":"232113686","MEAN_ELEMENT_THEORY":"SGP4","TLE_LINE1":"1 47598U 21009BC  23138.84862234  .00018449  00000-0  12534-2 0  9992","TLE_LINE2":"2 47598  53.0541 296.7983 0000990  69.6588 290.4507 15.06424250126327","LAUNCH_DATE":"2021-02-04","ARG_OF_PERICENTER":"69.6588","APOAPSIS":"547.825","COUNTRY_CODE":"US","ECCENTRICITY":"0.00009900","EPOCH":"2023-05-18T20:22:00.970176","NORAD_CAT_ID":"47598","MEAN_MOTION":"15.06424250","FILE":"3911388","REF_FRAME":"TEME","BSTAR":"0.00125340000000","CENTER_NAME":"EARTH","MEAN_MOTION_DDOT":"0.0000000000000","CLASSIFICATION_TYPE":"U","DECAY_DATE":null,"PERIAPSIS":"546.454","MEAN_ANOMALY":"290.4507","OBJECT_ID":"2021-009BC","MEAN_MOTION_DOT":"0.00018449","REV_AT_EPOCH":"12632","TIME_SYSTEM":"UTC","INCLINATION":"53.0541","ELEMENT_SET_NO":"999","RCS_SIZE":"LARGE","OBJECT_NAME":"STARLINK-2003","SEMIMAJOR_AXIS":"6925.274","OBJECT_TYPE":"PAYLOAD"},{"RCS_SIZE":"LARGE","OBJECT_NAME":"STARLINK-2004","SEMIMAJOR_AXIS":"6925.294","OBJECT_TYPE":"PAYLOAD","TIME_SYSTEM":"UTC","INCLINATION":"53.0538","ELEMENT_SET_NO":"999","REV_AT_EPOCH":"12644","OBJECT_ID":"2021-009BD","MEAN_ANOMALY":"295.8529","MEAN_MOTION_DOT":"0.00012371","BSTAR":"0.00084755000000","REF_FRAME":"TEME","CENTER_NAME":"EARTH","MEAN_MOTION_DDOT":"0.0000000000000","CLASSIFICATION_TYPE":"U","DECAY_DATE":null,"PERIAPSIS":"546.468","ECCENTRICITY":"0.00009970","COUNTRY_CODE":"US","EPOCH":"2023-05-18T18:31:52.907232","NORAD_CAT_ID":"47599","MEAN_MOTION":"15.06417897","FILE":"3911388","LAUNCH_DATE":"2021-02-04","ARG_OF_PERICENTER":"64.2563","APOAPSIS":"547.849","EPHEMERIS_TYPE":"0","SITE":"AFETR","RA_OF_ASC_NODE":"287.1414","PERIOD":"95.591","GP_ID":"232114437","MEAN_ELEMENT_THEORY":"SGP4","TLE_LINE1":"1 47599U 21009BD  23138.77214013  .00012371  00000-0  84755-3 0  9994","TLE_LINE2":"2 47599  53.0538 287.1414 0000997  64.2563 295.8529 15.06417897126443"},{"COUNTRY_CODE":"US","ECCENTRICITY":"0.00005660","FILE":"3911388","MEAN_MOTION":"15.06417666","NORAD_CAT_ID":"47600","EPOCH":"2023-05-18T19:09:01.678176","MEAN_MOTION_DDOT":"0.0000000000000","CLASSIFICATION_TYPE":"U","CENTER_NAME":"EARTH","REF_FRAME":"TEME","BSTAR":"0.00096683000000","PERIAPSIS":"546.767","DECAY_DATE":null,"PERIOD":"95.591","RA_OF_ASC_NODE":"286.9981","SITE":"AFETR","EPHEMERIS_TYPE":"0","TLE_LINE2":"2 47600  53.0529 286.9981 0000566  96.3119 263.7934 15.06417666126456","TLE_LINE1":"1 47600U 21009BE  23138.79793609  .00014156  00000-0  96683-3 0  9998","MEAN_ELEMENT_THEORY":"SGP4","GP_ID":"232112685","LAUNCH_DATE":"2021-02-04","APOAPSIS":"547.551","ARG_OF_PERICENTER":"96.3119","ELEMENT_SET_NO":"999","INCLINATION":"53.0529","TIME_SYSTEM":"UTC","RCS_SIZE":"LARGE","OBJECT_TYPE":"PAYLOAD","SEMIMAJOR_AXIS":"6925.294","OBJECT_NAME":"STARLINK-2005","MEAN_MOTION_DOT":"0.00014156","MEAN_ANOMALY":"263.7934","OBJECT_ID":"2021-009BE","REV_AT_EPOCH":"12645"},{"LAUNCH_DATE":"2021-02-04","ARG_OF_PERICENTER":"77.2944","APOAPSIS":"547.706","RA_OF_ASC_NODE":"286.8268","PERIOD":"95.590","EPHEMERIS_TYPE":"0","SITE":"AFETR","TLE_LINE1":"1 47601U 21009BF  23138.84217033  .00017443  00000-0  11861-2 0  9993","TLE_LINE2":"2 47601  53.0540 286.8268 0000839  77.2944 282.8139 15.06428894126458","GP_ID":"232112935","MEAN_ELEMENT_THEORY":"SGP4","MEAN_MOTION_DDOT":"0.0000000000000","CLASSIFICATION_TYPE":"U","REF_FRAME":"TEME","BSTAR":"0.00118610000000","CENTER_NAME":"EARTH","DECAY_DATE":null,"PERIAPSIS":"546.544","COUNTRY_CODE":"US","ECCENTRICITY":"0.00008390","MEAN_MOTION":"15.06428894","FILE":"3911388","EPOCH":"2023-05-18T20:12:43.516512","NORAD_CAT_ID":"47601","REV_AT_EPOCH":"12645","MEAN_MOTION_DOT":"0.00017443","OBJECT_ID":"2021-009BF","MEAN_ANOMALY":"282.8139","RCS_SIZE":"LARGE","SEMIMAJOR_AXIS":"6925.260","OBJECT_TYPE":"PAYLOAD","OBJECT_NAME":"STARLINK-2006","INCLINATION":"53.0540","ELEMENT_SET_NO":"999","TIME_SYSTEM":"UTC"},{"INCLINATION":"53.0541","ELEMENT_SET_NO":"999","TIME_SYSTEM":"UTC","RCS_SIZE":"LARGE","SEMIMAJOR_AXIS":"6925.257","OBJECT_TYPE":"PAYLOAD","OBJECT_NAME":"STARLINK-2007","MEAN_MOTION_DOT":"0.00018006","MEAN_ANOMALY":"285.8661","OBJECT_ID":"2021-009BG","REV_AT_EPOCH":"12631","COUNTRY_CODE":"US","ECCENTRICITY":"0.00011830","MEAN_MOTION":"15.06430025","FILE":"3911388","EPOCH":"2023-05-18T20:43:14.629728","NORAD_CAT_ID":"47602","MEAN_MOTION_DDOT":"0.0000000000000","CLASSIFICATION_TYPE":"U","REF_FRAME":"TEME","BSTAR":"0.00122360000000","CENTER_NAME":"EARTH","DECAY_DATE":null,"PERIAPSIS":"546.302","RA_OF_ASC_NODE":"296.7308","PERIOD":"95.590","EPHEMERIS_TYPE":"0","SITE":"AFETR","TLE_LINE2":"2 47602  53.0541 296.7308 0001183  74.2459 285.8661 15.06430025126313","TLE_LINE1":"1 47602U 21009BG  23138.86336377  .00018006  00000-0  12236-2 0  9992","GP_ID":"232114187","MEAN_ELEMENT_THEORY":"SGP4","LAUNCH_DATE":"2021-02-04","ARG_OF_PERICENTER":"74.2459","APOAPSIS":"547.941"},{"REV_AT_EPOCH":"12583","MEAN_ANOMALY":"282.9363","OBJECT_ID":"2021-009BH","MEAN_MOTION_DOT":"0.00016229","OBJECT_NAME":"STARLINK-2008","SEMIMAJOR_AXIS":"6925.332","OBJECT_TYPE":"PAYLOAD","RCS_SIZE":"LARGE","TIME_SYSTEM":"UTC","INCLINATION":"53.0539","ELEMENT_SET_NO":"999","ARG_OF_PERICENTER":"77.1724","APOAPSIS":"547.806","LAUNCH_DATE":"2021-02-04","GP_ID":"232082707","MEAN_ELEMENT_THEORY":"SGP4","TLE_LINE1":"1 47603U 21009BH  23138.47727124  .00016229  00000-0  11057-2 0  9999","TLE_LINE2":"2 47603  53.0539 328.4663 0000879  77.1724 282.9363 15.06405350125832","EPHEMERIS_TYPE":"0","SITE":"AFETR","RA_OF_ASC_NODE":"328.4663","PERIOD":"95.592","DECAY_DATE":null,"PERIAPSIS":"546.588","REF_FRAME":"TEME","BSTAR":"0.00110570000000","CENTER_NAME":"EARTH","MEAN_MOTION_DDOT":"0.0000000000000","CLASSIFICATION_TYPE":"U","EPOCH":"2023-05-18T11:27:16.235136","NORAD_CAT_ID":"47603","MEAN_MOTION":"15.06405350","FILE":"3911221","COUNTRY_CODE":"US","ECCENTRICITY":"0.00008790"},{"ECCENTRICITY":"0.00009910","COUNTRY_CODE":"US","FILE":"3911388","MEAN_MOTION":"15.06413901","NORAD_CAT_ID":"47604","EPOCH":"2023-05-18T19:18:19.438560","CLASSIFICATION_TYPE":"U","MEAN_MOTION_DDOT":"0.0000000000000","CENTER_NAME":"EARTH","REF_FRAME":"TEME","BSTAR":"0.00071091000000","PERIAPSIS":"546.485","DECAY_DATE":null,"PERIOD":"95.591","RA_OF_ASC_NODE":"296.9957","SITE":"AFETR","EPHEMERIS_TYPE":"0","TLE_LINE1":"1 47604U 21009BJ  23138.80439165  .00010327  00000-0  71091-3 0  9990","TLE_LINE2":"2 47604  53.0541 296.9957 0000991  63.9321 296.1770 15.06413901126316","MEAN_ELEMENT_THEORY":"SGP4","GP_ID":"232113186","LAUNCH_DATE":"2021-02-04","APOAPSIS":"547.857","ARG_OF_PERICENTER":"63.9321","ELEMENT_SET_NO":"999","INCLINATION":"53.0541","TIME_SYSTEM":"UTC","RCS_SIZE":"LARGE","OBJECT_TYPE":"PAYLOAD","SEMIMAJOR_AXIS":"6925.306","OBJECT_NAME":"STARLINK-2021","MEAN_MOTION_DOT":"0.00010327","OBJECT_ID":"2021-009BJ","MEAN_ANOMALY":"296.1770","REV_AT_EPOCH":"12631"},{"OBJECT_TYPE":"PAYLOAD","SEMIMAJOR_AXIS":"6925.294","OBJECT_NAME":"STARLINK-2024","RCS_SIZE":"LARGE","ELEMENT_SET_NO":"999","INCLINATION":"53.0541","TIME_SYSTEM":"UTC","REV_AT_EPOCH":"12632","MEAN_MOTION_DOT":"0.00013600","OBJECT_ID":"2021-009BL","MEAN_ANOMALY":"280.0651","PERIAPSIS":"546.514","DECAY_DATE":null,"MEAN_MOTION_DDOT":"0.0000000000000","CLASSIFICATION_TYPE":"U","CENTER_NAME":"EARTH","REF_FRAME":"TEME","BSTAR":"0.00092967000000","FILE":"3911388","MEAN_MOTION":"15.06417732","NORAD_CAT_ID":"47606","EPOCH":"2023-05-18T20:59:10.123872","COUNTRY_CODE":"US","ECCENTRICITY":"0.00009320","APOAPSIS":"547.805","ARG_OF_PERICENTER":"80.0444","LAUNCH_DATE":"2021-02-04","TLE_LINE1":"1 47606U 21009BL  23138.87442273  .00013600  00000-0  92967-3 0  9995","TLE_LINE2":"2 47606  53.0541 296.6826 0000932  80.0444 280.0651 15.06417732126328","MEAN_ELEMENT_THEORY":"SGP4","GP_ID":"232113436","PERIOD":"95.591","RA_OF_ASC_NODE":"296.6826","SITE":"AFETR","EPHEMERIS_TYPE":"0"}];
